ORBCOMM FM33 [-]        
1 25983U 99065D   23294.85008850  .00001762  00000+0  63749-3 0  9997
2 25983  45.0304 344.4713 0010648 262.7708 267.9642 14.36879444249058
ORBCOMM FM36 [-]        
1 25984U 99065E   23294.48755526  .00002283  00000+0  84778-3 0  9990
2 25984  45.0396  68.2031 0004321 157.8192 202.2843 14.34745958248072
ORBCOMM FM35 [+]        
1 25985U 99065F   23294.75804037  .00001688  00000+0  64344-3 0  9998
2 25985  45.0404  69.0285 0003689 241.1012 118.9465 14.34442560247926
ORBCOMM FM34 [-]        
1 25986U 99065G   23294.93134247  .00001704  00000+0  64992-3 0  9996
2 25986  45.0392  68.6886 0004736 197.4735 162.5950 14.34391389248066
ORBCOMM FM38 [-]        
1 33060U 08031A   23294.74534097  .00002939  00000+0  44931-3 0  9999
2 33060  48.4419 303.5355 0006066 327.2421  32.8116 14.76239602825306
ORBCOMM FM41 [-]        
1 33061U 08031B   23294.78788632  .00002674  00000+0  41365-3 0  9994
2 33061  48.4453 309.5030 0005296 314.4165 215.6675 14.76004467824813
ORBCOMM FM29 [-]        
1 33062U 08031C   23294.83110477  .00002683  00000+0  41600-3 0  9999
2 33062  48.4409 317.2819 0007191 313.4577 216.8197 14.75887310825120
ORBCOMM FM39 [-]        
1 33063U 08031D   23294.84257933  .00002409  00000+0  38393-3 0  9991
2 33063  48.4424 336.3470 0008192 291.5644  68.4396 14.75041188824458
