<?xml version="1.0" encoding="UTF-8"?>
<ndm xmlns:xsi="http://www.w3.org/2001/XMLSchema-instance" xsi:noNamespaceSchemaLocation="https://sanaregistry.org/r/ndmxml_unqualified/ndmxml-2.0.0-master-2.0.xsd">
<omm id="CCSDS_OMM_VERS" version="2.0">
<header><CREATION_DATE/><ORIGINATOR/></header><body><segment><metadata><OBJECT_NAME>ORBCOMM FM33 [-]</OBJECT_NAME><OBJECT_ID>1999-065D</OBJECT_ID><CENTER_NAME>EARTH</CENTER_NAME><REF_FRAME>TEME</REF_FRAME><TIME_SYSTEM>UTC</TIME_SYSTEM><MEAN_ELEMENT_THEORY>SGP4</MEAN_ELEMENT_THEORY></metadata><data><meanElements><EPOCH>2023-10-21T20:24:07.646400</EPOCH><MEAN_MOTION>14.36879444</MEAN_MOTION><ECCENTRICITY>.0010648</ECCENTRICITY><INCLINATION>45.0304</INCLINATION><RA_OF_ASC_NODE>344.4713</RA_OF_ASC_NODE><ARG_OF_PERICENTER>262.7708</ARG_OF_PERICENTER><MEAN_ANOMALY>267.9642</MEAN_ANOMALY></meanElements><tleParameters><EPHEMERIS_TYPE>0</EPHEMERIS_TYPE><CLASSIFICATION_TYPE>U</CLASSIFICATION_TYPE><NORAD_CAT_ID>25983</NORAD_CAT_ID><ELEMENT_SET_NO>999</ELEMENT_SET_NO><REV_AT_EPOCH>24905</REV_AT_EPOCH><BSTAR>.63749E-3</BSTAR><MEAN_MOTION_DOT>.1762E-4</MEAN_MOTION_DOT><MEAN_MOTION_DDOT>0</MEAN_MOTION_DDOT></tleParameters></data></segment></body></omm>
<omm id="CCSDS_OMM_VERS" version="2.0">
<header><CREATION_DATE/><ORIGINATOR/></header><body><segment><metadata><OBJECT_NAME>ORBCOMM FM36 [-]</OBJECT_NAME><OBJECT_ID>1999-065E</OBJECT_ID><CENTER_NAME>EARTH</CENTER_NAME><REF_FRAME>TEME</REF_FRAME><TIME_SYSTEM>UTC</TIME_SYSTEM><MEAN_ELEMENT_THEORY>SGP4</MEAN_ELEMENT_THEORY></metadata><data><meanElements><EPOCH>2023-10-21T11:42:04.774464</EPOCH><MEAN_MOTION>14.34745958</MEAN_MOTION><ECCENTRICITY>.0004321</ECCENTRICITY><INCLINATION>45.0396</INCLINATION><RA_OF_ASC_NODE>68.2031</RA_OF_ASC_NODE><ARG_OF_PERICENTER>157.8192</ARG_OF_PERICENTER><MEAN_ANOMALY>202.2843</MEAN_ANOMALY></meanElements><tleParameters><EPHEMERIS_TYPE>0</EPHEMERIS_TYPE><CLASSIFICATION_TYPE>U</CLASSIFICATION_TYPE><NORAD_CAT_ID>25984</NORAD_CAT_ID><ELEMENT_SET_NO>999</ELEMENT_SET_NO><REV_AT_EPOCH>24807</REV_AT_EPOCH><BSTAR>.84778E-3</BSTAR><MEAN_MOTION_DOT>.2283E-4</MEAN_MOTION_DOT><MEAN_MOTION_DDOT>0</MEAN_MOTION_DDOT></tleParameters></data></segment></body></omm>
<omm id="CCSDS_OMM_VERS" version="2.0">
<header><CREATION_DATE/><ORIGINATOR/></header><body><segment><metadata><OBJECT_NAME>ORBCOMM FM35 [+]</OBJECT_NAME><OBJECT_ID>1999-065F</OBJECT_ID><CENTER_NAME>EARTH</CENTER_NAME><REF_FRAME>TEME</REF_FRAME><TIME_SYSTEM>UTC</TIME_SYSTEM><MEAN_ELEMENT_THEORY>SGP4</MEAN_ELEMENT_THEORY></metadata><data><meanElements><EPOCH>2023-10-21T18:11:34.687968</EPOCH><MEAN_MOTION>14.34442560</MEAN_MOTION><ECCENTRICITY>.0003689</ECCENTRICITY><INCLINATION>45.0404</INCLINATION><RA_OF_ASC_NODE>69.0285</RA_OF_ASC_NODE><ARG_OF_PERICENTER>241.1012</ARG_OF_PERICENTER><MEAN_ANOMALY>118.9465</MEAN_ANOMALY></meanElements><tleParameters><EPHEMERIS_TYPE>0</EPHEMERIS_TYPE><CLASSIFICATION_TYPE>U</CLASSIFICATION_TYPE><NORAD_CAT_ID>25985</NORAD_CAT_ID><ELEMENT_SET_NO>999</ELEMENT_SET_NO><REV_AT_EPOCH>24792</REV_AT_EPOCH><BSTAR>.64344E-3</BSTAR><MEAN_MOTION_DOT>.1688E-4</MEAN_MOTION_DOT><MEAN_MOTION_DDOT>0</MEAN_MOTION_DDOT></tleParameters></data></segment></body></omm>
<omm id="CCSDS_OMM_VERS" version="2.0">
<header><CREATION_DATE/><ORIGINATOR/></header><body><segment><metadata><OBJECT_NAME>ORBCOMM FM34 [-]</OBJECT_NAME><OBJECT_ID>1999-065G</OBJECT_ID><CENTER_NAME>EARTH</CENTER_NAME><REF_FRAME>TEME</REF_FRAME><TIME_SYSTEM>UTC</TIME_SYSTEM><MEAN_ELEMENT_THEORY>SGP4</MEAN_ELEMENT_THEORY></metadata><data><meanElements><EPOCH>2023-10-21T22:21:07.989408</EPOCH><MEAN_MOTION>14.34391389</MEAN_MOTION><ECCENTRICITY>.0004736</ECCENTRICITY><INCLINATION>45.0392</INCLINATION><RA_OF_ASC_NODE>68.6886</RA_OF_ASC_NODE><ARG_OF_PERICENTER>197.4735</ARG_OF_PERICENTER><MEAN_ANOMALY>162.5950</MEAN_ANOMALY></meanElements><tleParameters><EPHEMERIS_TYPE>0</EPHEMERIS_TYPE><CLASSIFICATION_TYPE>U</CLASSIFICATION_TYPE><NORAD_CAT_ID>25986</NORAD_CAT_ID><ELEMENT_SET_NO>999</ELEMENT_SET_NO><REV_AT_EPOCH>24806</REV_AT_EPOCH><BSTAR>.64992E-3</BSTAR><MEAN_MOTION_DOT>.1704E-4</MEAN_MOTION_DOT><MEAN_MOTION_DDOT>0</MEAN_MOTION_DDOT></tleParameters></data></segment></body></omm>
<omm id="CCSDS_OMM_VERS" version="2.0">
<header><CREATION_DATE/><ORIGINATOR/></header><body><segment><metadata><OBJECT_NAME>ORBCOMM FM38 [-]</OBJECT_NAME><OBJECT_ID>2008-031A</OBJECT_ID><CENTER_NAME>EARTH</CENTER_NAME><REF_FRAME>TEME</REF_FRAME><TIME_SYSTEM>UTC</TIME_SYSTEM><MEAN_ELEMENT_THEORY>SGP4</MEAN_ELEMENT_THEORY></metadata><data><meanElements><EPOCH>2023-10-21T17:53:17.459808</EPOCH><MEAN_MOTION>14.76239602</MEAN_MOTION><ECCENTRICITY>.0006066</ECCENTRICITY><INCLINATION>48.4419</INCLINATION><RA_OF_ASC_NODE>303.5355</RA_OF_ASC_NODE><ARG_OF_PERICENTER>327.2421</ARG_OF_PERICENTER><MEAN_ANOMALY>32.8116</MEAN_ANOMALY></meanElements><tleParameters><EPHEMERIS_TYPE>0</EPHEMERIS_TYPE><CLASSIFICATION_TYPE>U</CLASSIFICATION_TYPE><NORAD_CAT_ID>33060</NORAD_CAT_ID><ELEMENT_SET_NO>999</ELEMENT_SET_NO><REV_AT_EPOCH>82530</REV_AT_EPOCH><BSTAR>.44931E-3</BSTAR><MEAN_MOTION_DOT>.2939E-4</MEAN_MOTION_DOT><MEAN_MOTION_DDOT>0</MEAN_MOTION_DDOT></tleParameters></data></segment></body></omm>
<omm id="CCSDS_OMM_VERS" version="2.0">
<header><CREATION_DATE/><ORIGINATOR/></header><body><segment><metadata><OBJECT_NAME>ORBCOMM FM41 [-]</OBJECT_NAME><OBJECT_ID>2008-031B</OBJECT_ID><CENTER_NAME>EARTH</CENTER_NAME><REF_FRAME>TEME</REF_FRAME><TIME_SYSTEM>UTC</TIME_SYSTEM><MEAN_ELEMENT_THEORY>SGP4</MEAN_ELEMENT_THEORY></metadata><data><meanElements><EPOCH>2023-10-21T18:54:33.378048</EPOCH><MEAN_MOTION>14.76004467</MEAN_MOTION><ECCENTRICITY>.0005296</ECCENTRICITY><INCLINATION>48.4453</INCLINATION><RA_OF_ASC_NODE>309.5030</RA_OF_ASC_NODE><ARG_OF_PERICENTER>314.4165</ARG_OF_PERICENTER><MEAN_ANOMALY>215.6675</MEAN_ANOMALY></meanElements><tleParameters><EPHEMERIS_TYPE>0</EPHEMERIS_TYPE><CLASSIFICATION_TYPE>U</CLASSIFICATION_TYPE><NORAD_CAT_ID>33061</NORAD_CAT_ID><ELEMENT_SET_NO>999</ELEMENT_SET_NO><REV_AT_EPOCH>82481</REV_AT_EPOCH><BSTAR>.41365E-3</BSTAR><MEAN_MOTION_DOT>.2674E-4</MEAN_MOTION_DOT><MEAN_MOTION_DDOT>0</MEAN_MOTION_DDOT></tleParameters></data></segment></body></omm>
<omm id="CCSDS_OMM_VERS" version="2.0">
<header><CREATION_DATE/><ORIGINATOR/></header><body><segment><metadata><OBJECT_NAME>ORBCOMM FM29 [-]</OBJECT_NAME><OBJECT_ID>2008-031C</OBJECT_ID><CENTER_NAME>EARTH</CENTER_NAME><REF_FRAME>TEME</REF_FRAME><TIME_SYSTEM>UTC</TIME_SYSTEM><MEAN_ELEMENT_THEORY>SGP4</MEAN_ELEMENT_THEORY></metadata><data><meanElements><EPOCH>2023-10-21T19:56:47.452128</EPOCH><MEAN_MOTION>14.75887310</MEAN_MOTION><ECCENTRICITY>.0007191</ECCENTRICITY><INCLINATION>48.4409</INCLINATION><RA_OF_ASC_NODE>317.2819</RA_OF_ASC_NODE><ARG_OF_PERICENTER>313.4577</ARG_OF_PERICENTER><MEAN_ANOMALY>216.8197</MEAN_ANOMALY></meanElements><tleParameters><EPHEMERIS_TYPE>0</EPHEMERIS_TYPE><CLASSIFICATION_TYPE>U</CLASSIFICATION_TYPE><NORAD_CAT_ID>33062</NORAD_CAT_ID><ELEMENT_SET_NO>999</ELEMENT_SET_NO><REV_AT_EPOCH>82512</REV_AT_EPOCH><BSTAR>.416E-3</BSTAR><MEAN_MOTION_DOT>.2683E-4</MEAN_MOTION_DOT><MEAN_MOTION_DDOT>0</MEAN_MOTION_DDOT></tleParameters></data></segment></body></omm>
<omm id="CCSDS_OMM_VERS" version="2.0">
<header><CREATION_DATE/><ORIGINATOR/></header><body><segment><metadata><OBJECT_NAME>ORBCOMM FM39 [-]</OBJECT_NAME><OBJECT_ID>2008-031D</OBJECT_ID><CENTER_NAME>EARTH</CENTER_NAME><REF_FRAME>TEME</REF_FRAME><TIME_SYSTEM>UTC</TIME_SYSTEM><MEAN_ELEMENT_THEORY>SGP4</MEAN_ELEMENT_THEORY></metadata><data><meanElements><EPOCH>2023-10-21T20:13:18.854112</EPOCH><MEAN_MOTION>14.75041188</MEAN_MOTION><ECCENTRICITY>.0008192</ECCENTRICITY><INCLINATION>48.4424</INCLINATION><RA_OF_ASC_NODE>336.3470</RA_OF_ASC_NODE><ARG_OF_PERICENTER>291.5644</ARG_OF_PERICENTER><MEAN_ANOMALY>68.4396</MEAN_ANOMALY></meanElements><tleParameters><EPHEMERIS_TYPE>0</EPHEMERIS_TYPE><CLASSIFICATION_TYPE>U</CLASSIFICATION_TYPE><NORAD_CAT_ID>33063</NORAD_CAT_ID><ELEMENT_SET_NO>999</ELEMENT_SET_NO><REV_AT_EPOCH>82445</REV_AT_EPOCH><BSTAR>.38393E-3</BSTAR><MEAN_MOTION_DOT>.2409E-4</MEAN_MOTION_DOT><MEAN_MOTION_DDOT>0</MEAN_MOTION_DDOT></tleParameters></data></segment></body></omm>

</ndm>
